id_empresa|nombre|logo|direccion|horario|descripcion|sitio_web|latitud|longitud|fecha_creacion
2e5cff6cb008f009eba3f50e9e949f0483586563|ASAKUSA SUSHIBAR RESTAURANTE|http://cde.2.ofertop.pe/est/440.jpg?201503271751|Av. Javier Prado Este 2994, San Borja|Horario de almuerzo: de lunes a jueves de 12:30 m. a 3:30 p.m.^^Horario de cena: de lunes a jueves de 7 p.m. a 11 p.m.|Asakusa Sushibar Restaurante fue creado por cuatro jóvenes peruanos japoneses, con la idea de ofrecer la mejor comida japonesa fusión de Lima. Cuenta con una variada y deliciosa carta, y un espectacular y bien surtido sushibar, además de un local con un bello local de estilo japonés contemporáneo y una atención de primera.|http://www.asakusa.pe/|-12.086826|-76.99668099999997|28-03-2015 02:00:00
69c51a33df88d26e642b12e7db70672adc740377|AMARISCOS, PESCADOS Y MARISCOS||Av. Javier Prado Este 6529, La Molina|Horario de atención: de martes a domingo de 12 m. a 4 p.m.|Amariscos, Pescados y Mriscos con más de 13 años en el mercado, se han convertido en especialistas de la cocina de pescados y mariscos. Cada uno de sus platos ha sido elaborado con insumos de primera calidad y los más frescos ingredientes. Su staff de profesionales te permitirá vivir una experiencia gastronómica inolvidable.|http://amariscos.com/|-12.0796538|-76.96619199999998|28-03-2015 02:00:00
2094e9ae965b8d803108f80b53446b13456f1016|RESTAURANTE D´PASO||Alameda Mamacona Lote 1 (Alt. Km 28 Antigua Panamericana Sur- Terminado el Parque del Recuerdo), Pachacámac|De martes a viernes desde las 11 a.m. / Inicio del show: 12:30 p.m.|Restaurante D´Paso ubicado en Mamacona ofrece una propuesta distinta a los comensales, pues los recibe con deliciosos platos típicos y con una puesta en escena que representa parte de la historia de nuestro país. Su exhibición "Luces y Sonidos del Caballo del Perú", danzas y música de la costa, sierra y selva, se convierten en todo un espectáculo.|http://www.facebook.com/CaballoPeruanodePaso|37.2079057|-4.657305500000007|28-03-2015 02:00:00
325bd4a54df6a4c4676ae2f2fe474419bbfdbe1d|BIG LILA CAFÉ|http://cde.2.ofertop.pe/est/1364.jpg?201503271751|Av. Rivera Navarrete 841, San Isidro|De lunes a viernes de 7 a.m. a 10 p.m. / sábado de 8 a.m. a 4 p.m.|Big Lila Café, es un lugar cómodo y reconfortante donde podrás disfrutar toda la carta que te ofrece con ideas novedosas y deliciosas. En Big Lila Café serás recibido con las puertas abiertas y serás atendido por un personal con experiencia en el rubro de cafetería.|http://es-la.facebook.com/BigLila|-12.095715331906174|-77.02651157665173|28-03-2015 02:00:00
78d85718625a999e84429af4d1d14f9d64c9fd33|PASO OBLIGAO|http://cde.2.ofertop.pe/est/413.jpg?201503271751|Av. Manuel Valle Mz G Lote 10 (A 2 Kms del ingreso a Pachacámac), Pachacámac.|Sábados de 12 m. a 4 p.m.|Paso Obligao tiene casi 20 años en el mercado, siendo los pioneros en servir pollos a la leña en Lima. Hasta hoy tienen 4 locales, el último se encuentra en Pachacamac, que a diferencia de los otros, aquí se cocina todo en hornos de barro a la leña. Son ganadores de tres premios en el concurso anual de cocina Ecogurmet de Pachacamac. Su comida se caracteriza por ser lo más natural posible, usando productos del valle, combinados con insumos de la sierra, como las papas nativas, ocas y mashuas. La atención es de gran calidad y personalizada, y van de la mano de sus colaboradores, quienes atienden gustosamente a cada uno de sus comensales, haciéndolos sentir como en su propia casa.|http://pasoobligao.com/bienvenida.php|-12.22569859296973|-76.86139241914066|28-03-2015 02:00:00
c8b76da43936a2eec3d876a64a14eab551850df4|PLANET CHICKEN||Av. Alfredo Mendiola 3698 - C.C. Megaplaza Norte|Horario de atención: de lunes a sábado de 12 m. a 12 p.m. /  domingo de 12 m. a 11 p.m.^^Podrás validar tu oferta solo de lunes a jueves de 12 p.m. a 11 p.m.|Planet Chicken es la primera cadena peruana de restaurantes en ofrecerte el mejor Pollo a la brasa, acompañado de nuestra deliciosa comida criolla. Con un ambiente único que rinde tributo a la peruanidad, sus entretenidos restaurantes han sido diseñados para presentarte los mejores shows en vivo y para que puedas cantar con tus amigos en su espectacular Karaoke.|http://es-la.facebook.com/planetchicken|-11.99395228992712|-77.06148148435591|28-03-2015 02:00:00
c2bbb8a88197a47163062c6b45c9f67afd3b8e30|LONG HORN ||Av. Alfredo Mendiola 3698 - C.C. Megaplaza, Independencia|De lunes a viernes de 4 p.m. a 10 p.m.|En Long Horn podrás degustar los más exquisitos cortes de carne Premium americana y argentina, todo ello acompañado de una exquisita pasta y la mejor selección de vinos y licores, en un cálido ambiente y con la buena atención que los caracteriza. ¡Ve y vive la experiencia Long Horn!|http://www.longhorn.com.pe/view/|-11.99396278454756|-77.0614627088928|28-03-2015 02:00:00
8a02ebefecc21ff8bc23e35d2755271828cf9348|EL RANCHO GRANDE||Mz. C, Lt. 39, Asociación Huertos de Tungasuca, Comas|De lunes a viernes de 12 m. a 5 p.m.|El Rancho Grande deleita a sus clientes desde hace 30 años brindándole una sazón especial a todos sus platillos para complacer a los amantes de la comida criolla. Pone por ejemplo, a gusto del cliente, sus espectaculares cuy chactado acompañado de papas coloradas, cecinas ahumadas de carne de caza servida con mote cusqueño, tallarines, caldos, pichones de castilla; y mucho más.|http://www.elranchograndedelperu.com/|-11.90975265763975|-77.0558671799011|28-03-2015 02:00:00
6317ba5dcc846a6464cc6e1d675043fc9d7db047|LA CANDELARIA|http://cde.2.ofertop.pe/est/408.jpg?201503271751|Av. Bolognesi 292, Barranco|Horario del espectáculo: de 10:30 p.m. a 2:30 a.m.|La Candelaria basa su indudable éxito en su singular propuesta dancística que lleva un mensaje rotundo de peruanidad. Sus tres pilares fundamentales para mantener la calidad de sus espectáculos son sin duda las extraordinarias particularidades de sus danzas excelentemente conducidas; su exquisita cocina, su creativo y surtido bar y la gran calidad de sus servicios.^Un hito importante de esta casa barranquina ha sido también, la introducción en sus celebraciones por Año Nuevo de un novedoso concepto artístico sobre el ancestral rito andino del “pago a la pachamama”, que se ha convertido en la mayor atracción de esta fecha. Además, encontrarás un servicio de primera, sonido inmejorable, pródiga iluminación con buena pista de baile y sobre todo un recuerdo inolvidable.|http://www.lacandelariaperu.com|-12.14886848053975|-77.01996508227836|28-03-2015 02:00:00
a9075c7fc5fa8496137a012348379f1fc12e4c8a|DON ROSALINO||Miraflores: Av. República de Panamá 5897 / San Borja: Av. Aviación 2667|De lunes a jueves de 12 m. a 3 p.m. y de 7 p.m. a 10 p.m. (Miraflores) / de lunes a jueves de 12:30 m. a 10 p.m. (San Borja)|Desde 1977, Don Rosalino mantiene la esencia de sus recetas italianas ahora complementadas con ingredientes y variantes de la gastronomía nacional. Esto hace a Don Rosalino único en su categoría, brindando la mejor experiencia de servicio en cada atención, y utilizando insumos de alta calidad para garantizar un producto único que se mantenga en la memoria y paladar de sus comensales.|http://www.donrosalino.com/|-12.121741332718637|-77.01793543434144|28-03-2015 02:00:00
0fe3d40725cd4af30fa563370641d87e4f7fc71e|MICALO CEVICHES Y TIRADITOS BAR||Av. Ariosto Matellini 641 Urb. Matellini, Chorrillos|De martes a viernes de 12 m. a 5 p.m.|MICALO ofrece desde el 2013 lo más sencillo del repertorio de la comida marina peruana en su máximo nivel de sabor: cebiches, tiraditos, leche de tigre GIGANTES, causas y chicharrones. Todos estos platos marinos son su es-pe-cia-li-dad. ¡Visítalos ya!|http://alturl.com/nv44p|-12.173586488120986|-77.00489453411103|28-03-2015 02:00:00
a9075c7fc5fa8496137a012348379f1fc12e4c8a|DON ROSALINO||Miraflores: Av. República de Panamá 5897 / San Borja: Av. Aviación 2667|De lunes a jueves de 12 m. a 3 p.m. y de 7 p.m. a 10 p.m. (Miraflores) / de lunes a jueves de 12:30 m. a 10 p.m. (San Borja)|Desde 1977, Don Rosalino mantiene la esencia de sus recetas italianas ahora complementadas con ingredientes y variantes de la gastronomía nacional. Esto hace a Don Rosalino único en su categoría, brindando la mejor experiencia de servicio en cada atención, y utilizando insumos de alta calidad para garantizar un producto único que se mantenga en la memoria y paladar de sus comensales.|http://es-es.facebook.com/donrosalinorestaurante|-12.121741332718637|-77.01793543434144|28-03-2015 02:00:00
9b2c3bbb486aff3756e9c92947d1f8d7e813c3ec|LONG HORN - MEGAPLAZA||Av. Alfredo Mendiola 3698 - C.C. Megaplaza, Independencia|De lunes a viernes de 4 p.m. a 9 p.m.|En Long Horn podrás degustar los más exquisitos cortes de carne Premium americana y argentina, todo ello acompañado de una exquisita pasta y la mejor selección de vinos y licores, en un cálido ambiente y con la buena atención que los caracteriza. ¡Ve y vive la experiencia Long Horn!|http://www.longhorn.com.pe/view/|-11.99396278454756|-77.0614627088928|28-03-2015 02:00:00
e37d97ed42430e82762c2cade0089410b2ff5d60|ANANKE TRATTORÍA PERUANA||Jr. Cusco 709, Magdalena|De martes a domingo de 12:30 m. a 3 p.m.|Ananké es una Trattoría de comida Italiana y criolla, donde su especialidad es el buffet. ¡Visítalos y arrasa con toda su cocina!|http://www.facebook.com/ananketrattoriaperuana?fref=ts|-12.088090584450564|-77.07337858335882|28-03-2015 02:00:00
51150650966b94b93299891ac4d2a2aeed25d6c7|80''S RESTO BAR||Av. Larco 101, Sótano del Centro Comercial Caracol, Miraflores|De lunes a sábados de 1 p.m. a 5 p.m.|80''s Resto Bar es un restaurante temático, que  ofrece la mejor carta de comida Peruana-Fusión, piqueos innovadores, selecta carta de bar con tragos que llevan nombres de las canciones más representativas de los ochenta. Está ambientado con la mejor música de esa década y los mejores videos. Así también los fines de semana ofrecen espectáculos de bandas en vivo y artistas reconocidos. Tiene 2 salones privados, salón de eventos, comedor principal, 2 barras y pista de baile.|http://www.ochentasrestobar.com/|-12.1292266|-77.02976519999999|28-03-2015 02:00:00
9baa6dcf8d62e9e31064aaf0ffd9b9ac5f1235b3|BARRANCO BEER COMPANY||Av. Almirante Grau 308, Barranco|De lunes a domingo de 12 m. a 8 p.m.|Barranco Beer Company nacida de ideales cerveceros y costumbres peruanas, es una cervecería de concepto vanguardista, no obstante conserva las técnicas originales para la elaboración tradicional de la cerveza. Su especialidad son las cervezas tipo Craft-Artesanal, usando en su elaboración insumos de la más alta calidad, contando con el asesoramiento profesional continuo de cerveceros y microbiólogos para un buen control de calidad.|http://www.facebook.com/BarrancoBeerCompany|-12.1472730364287|-77.02219857344971|28-03-2015 02:00:00
033939d81d9daad11ba695908e063d099231e988|EL PAPAPA||Av. Villarán 824, Surquillo (A 4 cuadras de la Av. Aviación)|De lunes a jueves de 4 p.m. a 12 a.m. / viernes y sábados de 4 p.m. a 1 a.m. / domingos de 4 p.m. a 12 a.m.|En El Papapa tienen la consigna de hacerte sentir “como en casa” con la estrella de su carta a la cabeza: sus salchipapas ofrecidas en distintas versiones elaboradas con frescos ingredientes y una gran variedad de salsas. Por ejemplo, La Tía de Huacho, La Prima; y El Papapa. Además, todos sus platos vienen acompañados de gaseosa ilimitada.^Y para los que prefieren cuidar la línea, también hay platos ligeros pero sabrosos como La Vecina y La Hermana. ¡Te invitamos a probar su deliciosa sazón!|http://www.facebook.com/elpapapa01/timeline|-12.12092838578219|-77.00302235221864|28-03-2015 02:00:00
a4e9fdc1610b919a0a3d8aeab5c596653124ce40|BLANCHAERT BISTRO||Av. Nicolás de Piérola 1018 Lima Cercado|Horario de Atención :^^ De Lunes a Viernes de:  08:00 am. a 09:00 pm.|Blanchaert Bistró se encuentra ubicado en el centro histórico de Lima, Plaza San Martín. Está comprometido en brindar un excelente servicio y hacer de cada vista una maravillosa experiencia. Para ello ha preparado una variada carta especializada en desayuno, almuerzo y after office, que serán el deleite de todos sus visitantes.|http://https://www.facebook.com/blanchaertbristro|-12.052048605185114|-77.03383176032713|28-03-2015 02:00:00
b151e24a815827ae5eec8f51a21e7cba76f7f99f|ENCUENTRO MARINO||Av. Antigua Panamericana Sur Km. 41 (Ingreso a la Playa los Pulpos) - Lurín|De lunes a domingo de 11 a.m. a 6 p.m.|Encuentro Marino especializa su sazón inspirado en los más ricos frutos de nuestro mar. ¡Visítalos en Lurín y disfruta de un intenso sabor! ;)|http://www.facebook.com/cebicheriaencuentromarino|-12.30626828540785|-76.84066287612916|28-03-2015 02:00:00
9baa6dcf8d62e9e31064aaf0ffd9b9ac5f1235b3|BARRANCO BEER COMPANY||Av. Almirante Grau 308, Barranco|De lunes a domingo de 12 m. a 8 p.m.|Barranco Beer Company nacida de ideales cerveceros y costumbres peruanas, es una cervecería de concepto vanguardista, no obstante conserva las técnicas originales para la elaboración tradicional de la cerveza. Su especialidad son las cervezas tipo Craft-Artesanal, usando en su elaboración insumos de la más alta calidad, contando con el asesoramiento profesional continuo de cerveceros y microbiólogos para un buen control de calidad.|http://www.facebook.com/BarrancoBeerCompany|-12.1434851|-77.02193679999999|28-03-2015 02:00:00
f5b3f8ed394eaf010c5870bd54d5ff6d1021bf99|EN SU PUNTO||Calle Doña Delmira 400, Urb. Los Rosales,  Santiago de Surco|De lunes a domingo de 11:30 a.m. a 4 p.m.|Restaurante En Su Punto se especializa en comida criolla como: arroz con pato, seco de cabrito, asado de costillar con frejoles, cau cau, mondonguito y más. Su compromiso no solo está en preparar la mejor comida, sino también brindar una esmerada atención a cada uno de sus comensales.||-12.143728|-77.00214619999997|28-03-2015 02:00:00
a4e9fdc1610b919a0a3d8aeab5c596653124ce40|BLANCHAERT BISTRO||Av. Nicolás de Piérola 1018, Lima Cercado|De lunes a viernes de 4 p.m. a 9 p.m. / sábados de 12 m. a 11 p.m. / domingos de 12 a.m. a 3 p.m.|Blanchaert Bistró se encuentra ubicado en el centro histórico de Lima, Plaza San Martín. Está comprometido en brindar un excelente servicio y hacer de cada vista una maravillosa experiencia. Para ello ha preparado una variada carta especializada en desayuno, almuerzo y after office, que serán el deleite de todos sus visitantes.|http://https://www.facebook.com/blanchaertbristro|-12.052048605185114|-77.03383176032713|28-03-2015 02:00:00
625da7db09b7bfc2411c96cf54d97ebc29f9705d|SUSHI BAR DEL PILAR||Pasaje Mártir Olaya 141, Miraflores|Horario de atención: de lunes a sábado de 1 p.m. a 4 p.m. (almuerzo) y de 6 p.m. a 11 p.m. (cena)|Sushi Bar Del Pilar es un área del Hotel Del Pilar Miraflores, el cual abrió sus puertas en 1998, heredando su prestigio y calidad en el servicio. Su misión es consolidarse como una nueva y fresca opción gastronómica respecto a la comida japonesa.|http://www.delpilarmirafloreshotel.com/lan/esp/indexa.php|-12.119423563274955|-77.03010237103092|28-03-2015 02:00:00
7425e3f3a951c8eed0a2a78e695b104e2d454eb4|LA PASTANA ||DELIVERY|Horario del delivery:  viernes de 5 p.m. a 11:00 p.m / sábados de 11 a.m a 11 p.m / domingos de 11 a.m a 9 p.m.|Con la recomendación del mismísimo chef Gastón Acurio, los fundadores de La Pastana supieron que se ganarían el corazón del público limeño conquistando las tierras de su estómago. Aliados con las pastas y los sentimientos que condimentan un buen plato, se dedican todos los días a crear preparaciones repletas de sabor y emociones, que dejan en las puertas de todos aquellos que deseen evocar la comida casera.|http://www.facebook.com/lapastana|-1|-1|28-03-2015 02:00:00
69b11e4b32f024abd179c930ab4c236a40477584|MR. GRILL ||Ca. Santa Isabel 615, Urb. Colmenares, Pueblo Libre (ref. cdra 8 de Av. La Marina)|Horario de atención: sábados y domingos de 12:30 m. a 4 p.m.|Disfruta lo mejor de las carnes preparadas a la Caja china, al Cilindro o a la parrilla, al más puro estilo y sabor de los especialistas de Mr. Grill.. Una buena Parrilla es un acontecimiento que reúne a la familia y amigos, donde siempre hay alguien que con mucho entusiasmo se toma el trabajo de liderarla y atenderla como una muestra de afecto y unión. ^Es así que nace la marca Mr. Grill, quien hace un merecido reconocimiento a estas verdaderas almas parrilleras con la que cada uno de nosotros afortunadamente contamos en nuestras vidas.|http://www.facebook.com/pages/Mr-Grill-Peru/109785929079803?fref=ts|-12.079030393543993|-77.07057236190184|28-03-2015 02:00:00
